[
    {
        "Altitude(m)": 604969.0892227032,
        "Argument of Periapsis(deg)": 0.0,
        "Eccentricity": 0.0,
        "Inclination(deg)": 60.0,
        "Latitude(deg)": -0.092732784207583,
        "Longitude(deg)": -55.02247229646392,
        "Mean Anomaly(deg)": 0.0,
        "RAAN(deg)": 45.0,
        "Satellite Name": "Test1 198",
        "Satellite Number": 198,
        "Semi-Major Axis(m)": 6980739.136638005,
        "Time(s)": 0
    },
    {
        "Altitude(m)": 604900.0282173167,
        "Argument of Periapsis(deg)": 0.00010418945913296404,
        "Eccentricity": 0.0,
        "Inclination(deg)": 60.0,
        "Latitude(deg)": 0.4476934006624682,
        "Longitude(deg)": -54.75434984479309,
        "Mean Anomaly(deg)": 0.6201061454618275,
        "RAAN(deg)": 44.99957995086026,
        "Satellite Name": "Test1 198",
        "Satellite Number": 198,
        "Semi-Major Axis(m)": 6980739.136638005,
        "Time(s)": 10
    }
]